First least square run :: 
12315.9050579  0.00408597297666  2.18894876362e-13  0.66  760.770352471  
Convergence moindre carre incomplete -> relance
Second least square run :: 
12164.9904419  0.00259575899069  1.37785747488e-10  0.66  296.679227882  
 
 Sommes des résidus par camera : 
              camera               sigma                   s                   n                 Sum        Sum expected                  s'
              ITER01       1.25452522374      0.306617805438                 158       109.740814766       16.0407866449        3.1212982272
              ITPI03       1.01478169476      0.843185914245                  10       7.54065144407       2.13866247004       2.09687828705
              ITTO02       1.31246522296      0.351786426891                 143       95.1862423782       13.5959065099       3.32865361527
              ITVE01      0.672054736298      0.747682905683                  89       15.3615737634       1.79166668486       2.76673924978
              ITER04      0.652192315998       2.24723338608                  85       4.27636109779       1.08315439796       4.01769312625
              ITVE02       1.13403652477      0.487834445043                 128       32.9102542615       6.14451314101       2.57656684595
              ITVE03        1.3255961261      0.611481822903                  17       31.6633301708        4.4651720656       3.60291570673
 Sum Expected Total :: 45.2598619143
 
 Sommes des résidus par camera 2 : 
              camera               sigma                   s                   n                 Sum        Sum expected                  s'
              ITER01       1.25452522374       3.13632222543                 158       1.36364335705       1.15882557739       1.42011752207
              ITPI03       1.01478169476       2.26005775074                  10       1.04830396565       1.17786073588                   0
              ITTO02       1.31246522296        3.3471911479                 143         1.129746543       1.15251065851                   0
              ITVE01      0.672054736298       2.86598600899                  89      0.914007412879       1.05433574014                   0
              ITER04      0.652192315998       4.60346781766                  85      0.900086011031       1.01983074146                   0
              ITVE02       1.13403652477       2.62234230363                 128       1.14477641867       1.18528275974                   0
              ITVE03        1.3255961261       3.65443724936                  17       1.11734173772       1.12288646842                   0
 Sum Expected Total :: 7.87153268154
 
Parametre  de la meilleure solution par moindre carré :: 
 V  = 12134.6282598 m/s
 A  = 0.00253785237202 m²/kg
 B  = 1.41318253657e-10 m²/J
 mu = 0.66
 
S_min : 7.61790544599
 
 
 Estimation Parametre par Moyenne pondérée (si cette estimation est très différente de la précédente, cela peut être le signe d'un problème) :: 
 V  = 12150.2856819 m/s
 A  = 0.00270317979041 m²/kg
 B  = 1.27385033931e-10 m²/J
 
 Parametre Maria :: 
 gamma = 67.6320472927°
 Alpha = 12.673906825
 Beta  = 1.39390694138
 
Final Mass : 1.65772119943 %
 
         rho(Kg/m³)               Re(m)              Me(Kg)               Rf(m)              Mf(Kg)
                1500      0.197016976051       48.0497149033     0.0502351240926      0.796530310217
                2500      0.118210185631       17.2978973652     0.0301410744555      0.286750911678
                3500      0.084435846879       8.82545783938     0.0215293388968       0.14630148555
                4500     0.0656723253503       5.33885721148     0.0167450413642     0.0885033678019
                5500     0.0537319025594       3.57394573661     0.0137004883889     0.0592460561318
                6500     0.0454654560118       2.55886055698     0.0115927209444     0.0424187739169
 
Matrix of Covariance : 
    |                   Ve |                    A |                    B | 
Ve  |        5658.75017536 |      0.0251290958128 |   -1.56262984343e-09 | 
A   |      0.0251290958128 |    1.91635869871e-07 |   -1.36117185572e-14 | 
B   |   -1.56262984343e-09 |   -1.36117185572e-14 |    1.11001342591e-21 | 
 
 
 Time shift :: 
ITER01 : 0.0532273776991 s
ITPI03 : -0.151539526872 s
ITTO02 : 0.0522596421434 s
ITVE01 : 0.0514798817411 s
ITER04 : 0.0652707462564 s
ITVE02 : 0.050875292699 s
ITVE03 : -0.121573413667 s
 
 
 Transposed Jacobian Matrix :: 
       |             Ve(m/s) |                    A |                    B | 
dx1(m) |     0.0680865939614 |   -1.20519356958e-07 |    9.90304939398e-16 | 
dx2(m) |     0.0449890927319 |    1.38810569378e-07 |   -6.62855905339e-15 | 
dx3(m) |    -0.0440621321168 |    2.09844055049e-08 |    2.99153670803e-15 | 
dx4(m) |   -0.00123801629545 |   -6.57557401765e-08 |    7.04143605272e-15 | 
 
 Propagation des Variances :: 
        |              Ve(m/s) |                    A |                    B | 
Ve(m/s) |        3.75292820625 |    2.21151676082e-06 |    -3.2207704898e-13 | 
A       |    2.21151676082e-06 |     2.6885715378e-11 |   -1.19967764429e-18 | 
B       |    -3.2207704898e-13 |   -1.19967764429e-18 |    7.16744092423e-26 | 
 
 Variances Totales :: 
        |              Ve(m/s) |                    A |                    B | 
Ve(m/s) |        5662.50310357 |      0.0251313073295 |   -1.56295192048e-09 | 
A       |      0.0251313073295 |    1.91662755586e-07 |   -1.36129182348e-14 | 
B       |   -1.56295192048e-09 |   -1.36129182348e-14 |    1.11008510032e-21 | 
 
sigma Ve : 75.2496053383 m/s
sigma A  : 0.000437793051094 m^2/Kg
sigma B  : 3.33179396169e-11 m^2/J
 
sigma Me (relatif) : 51.7515978376 %
sigma Mf (relatif) : 130.569465928 %
 
A/B : 17.9584187205 MJ/Kg
sigma A/B : 5.2462981182 MJ/Kg
 
    Remarque : A/B decrit la solidité du bolide. Il doit être entre 50 et 8000 MJ/Kg 
 
 
 
 
------------------------------------------------------------------------ 
------------------------------------------------------------------------ 
------------------------------------------------------------------------ 
 
 
  ORBITE :: 
Perifocal Distance              :: 0.983190394877 AU
Eccentricity                    :: 0.364536110933
Inclination                     :: 3.17621557126 °
Longitude of the ascending node :: 280.675230011 °
Argument of periapsis           :: 178.268411743 °
Mean anomaly at epoch           :: 351.968236498 °
Epoch                           :: 2019-12-15T18:29:56.274
Semi-major axe                  :: 1.5472010476 AU
 
Moon near encounter             :: 227011.921058km   ( 130.661863162 moon radius )
Tisserand_J                     :: 4.37680691913
Tisserand_S                     :: 7.17787146515
Tisserand_U                     :: 13.4164272204
Tisserand_N                     :: 20.4491266985
 
 
  Transposed Jacobian Matrix  :: 
        |        Per dist(AU) |                  ecc |                  Inc |                 Long |                  Arg |              Mean an |                Epoch |                    a | 
dx1(km) |  -0.000118763620437 |      0.0017187197758 |       0.017584314789 |    -0.00225527587942 |      -0.706204686086 |       0.387252500213 |        8584.22062635 |     0.00400861661802 |  
dx2(km) |    5.4974255436e-06 |    -0.00160210674127 |       0.195977106146 |    -0.00187560133725 |      0.0390822785904 |     -0.0106286757988 |        5938.27624297 |    -0.00388230390445 |  
dx3(km) |   8.16780765746e-05 |    0.000798930633295 |     0.00646907856148 |   -0.000937880093897 |       0.753914922921 |      -0.295293158105 |        2453.16176343 |     0.00207634653822 |  
dx4(km) |  -2.58745400444e-07 |     0.00410423191299 |       -0.17161042919 |    -0.00131224444425 |     0.00453955831338 |       0.102977966534 |        4720.23423529 |      0.0100573628645 |  
V(km/s) |  -6.19371277305e-05 |      0.0390174276397 |       0.171198083715 |     -0.0452019504796 |      -0.363677523545 |        1.80957130792 |         151821.02797 |      0.0948423093722 |  
 
 Variances :: 
             |        Per dist(AU) |                  ecc |                  Inc |                 Long |                  Arg |              Mean an |             Epoch(s) |                    a | 
Per dist(AU) |    2.9290337727e-11 |   -1.37543169473e-08 |   -5.88764608504e-08 |    1.59120687917e-08 |    1.79756400966e-07 |   -6.60015729136e-07 |     -0.0535115513673 |   -3.34222396831e-08 |  
ecc          |  -1.37543169473e-08 |    8.63086884094e-06 |    3.71271334516e-05 |    -9.9853664131e-06 |   -8.07865973314e-05 |    0.000400165717722 |        33.5399026146 |    2.09796491811e-05 |  
Inc          |  -5.88764608504e-08 |    3.71271334516e-05 |    0.000219867740113 |   -4.40550407517e-05 |   -0.000345164771575 |      0.0017422757736 |        147.869091314 |    9.02422861128e-05 |  
Long         |   1.59120687917e-08 |    -9.9853664131e-06 |   -4.40550407517e-05 |    1.15725981889e-05 |    9.34529650233e-05 |   -0.000463362472063 |        -38.869333294 |   -2.42720182542e-05 |  
Arg          |   1.79756400966e-07 |   -8.07865973314e-05 |   -0.000345164771575 |    9.34529650233e-05 |     0.00111500298017 |     -0.0039023701765 |       -314.345391663 |   -0.000196295215114 |  
Mean an      |  -6.60015729136e-07 |    0.000400165717722 |      0.0017422757736 |   -0.000463362472063 |     -0.0039023701765 |      0.0186299336294 |        1556.54734878 |    0.000972674149505 |  
Epoch(s)     |    -0.0535115513673 |        33.5399026146 |        147.869091314 |        -38.869333294 |       -314.345391663 |        1556.54734878 |        130552680.249 |        81.5273280365 |  
a            |  -3.34222396831e-08 |    2.09796491811e-05 |    9.02422861128e-05 |   -2.42720182542e-05 |   -0.000196295215114 |    0.000972674149505 |        81.5273280365 |    5.09967013358e-05 |  
 
     Ecarts types :: 
Per dist(AU) :   5.41205485255e-06 
ecc          :    0.00293783403904 
Inc          :      0.014827937824 
Long         :    0.00340185217035 
Arg          :     0.0333916603386 
Mean an      :      0.136491514862 
Epoch(s)     :        11425.965178 
a            :    0.00714119747212 
